<?xml version="1.0" encoding="UTF-8"?>
<gpx version="1.1" creator="driver-guardian makeDrive.ts" xmlns="http://www.topografix.com/GPX/1/1">
  <trk>
    <name>synthetic test drive</name>
    <trkseg>
      <trkpt lat="42.2808000" lon="-83.7430000"><time>2026-10-04T05:20:00.000Z</time></trkpt>
      <trkpt lat="42.2808000" lon="-83.7430000"><time>2026-10-04T05:20:01.000Z</time></trkpt>
      <trkpt lat="42.2808000" lon="-83.7430000"><time>2026-10-04T05:20:02.000Z</time></trkpt>
      <trkpt lat="42.2808000" lon="-83.7430000"><time>2026-10-04T05:20:03.000Z</time></trkpt>
      <trkpt lat="42.2808000" lon="-83.7430000"><time>2026-10-04T05:20:04.000Z</time></trkpt>
      <trkpt lat="42.2808000" lon="-83.7430000"><time>2026-10-04T05:20:05.000Z</time></trkpt>
      <trkpt lat="42.2808000" lon="-83.7430000"><time>2026-10-04T05:20:06.000Z</time></trkpt>
      <trkpt lat="42.2808000" lon="-83.7430000"><time>2026-10-04T05:20:07.000Z</time></trkpt>
      <trkpt lat="42.2808000" lon="-83.7430000"><time>2026-10-04T05:20:08.000Z</time></trkpt>
      <trkpt lat="42.2808000" lon="-83.7430000"><time>2026-10-04T05:20:09.000Z</time></trkpt>
      <trkpt lat="42.2808000" lon="-83.7430000"><time>2026-10-04T05:20:10.000Z</time></trkpt>
      <trkpt lat="42.2808000" lon="-83.7430000"><time>2026-10-04T05:20:11.000Z</time></trkpt>
      <trkpt lat="42.2808000" lon="-83.7430000"><time>2026-10-04T05:20:12.000Z</time></trkpt>
      <trkpt lat="42.2808000" lon="-83.7430000"><time>2026-10-04T05:20:13.000Z</time></trkpt>
      <trkpt lat="42.2808000" lon="-83.7430000"><time>2026-10-04T05:20:14.000Z</time></trkpt>
      <trkpt lat="42.2808000" lon="-83.7430000"><time>2026-10-04T05:20:15.000Z</time></trkpt>
      <trkpt lat="42.2808000" lon="-83.7430000"><time>2026-10-04T05:20:16.000Z</time></trkpt>
      <trkpt lat="42.2808000" lon="-83.7430000"><time>2026-10-04T05:20:17.000Z</time></trkpt>
      <trkpt lat="42.2808000" lon="-83.7430000"><time>2026-10-04T05:20:18.000Z</time></trkpt>
      <trkpt lat="42.2808000" lon="-83.7430000"><time>2026-10-04T05:20:19.000Z</time></trkpt>
      <trkpt lat="42.2808000" lon="-83.7430000"><time>2026-10-04T05:20:20.000Z</time></trkpt>
      <trkpt lat="42.2808000" lon="-83.7430000"><time>2026-10-04T05:20:21.000Z</time></trkpt>
      <trkpt lat="42.2808000" lon="-83.7430000"><time>2026-10-04T05:20:22.000Z</time></trkpt>
      <trkpt lat="42.2808000" lon="-83.7430000"><time>2026-10-04T05:20:23.000Z</time></trkpt>
      <trkpt lat="42.2808000" lon="-83.7430000"><time>2026-10-04T05:20:24.000Z</time></trkpt>
      <trkpt lat="42.2808000" lon="-83.7430000"><time>2026-10-04T05:20:25.000Z</time></trkpt>
      <trkpt lat="42.2808000" lon="-83.7430000"><time>2026-10-04T05:20:26.000Z</time></trkpt>
      <trkpt lat="42.2808000" lon="-83.7430000"><time>2026-10-04T05:20:27.000Z</time></trkpt>
      <trkpt lat="42.2808000" lon="-83.7430000"><time>2026-10-04T05:20:28.000Z</time></trkpt>
      <trkpt lat="42.2808000" lon="-83.7430000"><time>2026-10-04T05:20:29.000Z</time></trkpt>
      <trkpt lat="42.2808000" lon="-83.7430000"><time>2026-10-04T05:20:30.000Z</time></trkpt>
      <trkpt lat="42.2808000" lon="-83.7429951"><time>2026-10-04T05:20:31.000Z</time></trkpt>
      <trkpt lat="42.2808000" lon="-83.7429854"><time>2026-10-04T05:20:32.000Z</time></trkpt>
      <trkpt lat="42.2808000" lon="-83.7429709"><time>2026-10-04T05:20:33.000Z</time></trkpt>
      <trkpt lat="42.2808000" lon="-83.7429514"><time>2026-10-04T05:20:34.000Z</time></trkpt>
      <trkpt lat="42.2808000" lon="-83.7429271"><time>2026-10-04T05:20:35.000Z</time></trkpt>
      <trkpt lat="42.2808000" lon="-83.7428980"><time>2026-10-04T05:20:36.000Z</time></trkpt>
      <trkpt lat="42.2808000" lon="-83.7428640"><time>2026-10-04T05:20:37.000Z</time></trkpt>
      <trkpt lat="42.2808000" lon="-83.7428252"><time>2026-10-04T05:20:38.000Z</time></trkpt>
      <trkpt lat="42.2808000" lon="-83.7427814"><time>2026-10-04T05:20:39.000Z</time></trkpt>
      <trkpt lat="42.2808000" lon="-83.7427329"><time>2026-10-04T05:20:40.000Z</time></trkpt>
      <trkpt lat="42.2808000" lon="-83.7426795"><time>2026-10-04T05:20:41.000Z</time></trkpt>
      <trkpt lat="42.2808000" lon="-83.7426212"><time>2026-10-04T05:20:42.000Z</time></trkpt>
      <trkpt lat="42.2808000" lon="-83.7425580"><time>2026-10-04T05:20:43.000Z</time></trkpt>
      <trkpt lat="42.2808000" lon="-83.7424900"><time>2026-10-04T05:20:44.000Z</time></trkpt>
      <trkpt lat="42.2808000" lon="-83.7424172"><time>2026-10-04T05:20:45.000Z</time></trkpt>
      <trkpt lat="42.2808000" lon="-83.7423395"><time>2026-10-04T05:20:46.000Z</time></trkpt>
      <trkpt lat="42.2808000" lon="-83.7422569"><time>2026-10-04T05:20:47.000Z</time></trkpt>
      <trkpt lat="42.2808000" lon="-83.7421695"><time>2026-10-04T05:20:48.000Z</time></trkpt>
      <trkpt lat="42.2808000" lon="-83.7420772"><time>2026-10-04T05:20:49.000Z</time></trkpt>
      <trkpt lat="42.2808000" lon="-83.7419801"><time>2026-10-04T05:20:50.000Z</time></trkpt>
      <trkpt lat="42.2808000" lon="-83.7418781"><time>2026-10-04T05:20:51.000Z</time></trkpt>
      <trkpt lat="42.2808000" lon="-83.7417713"><time>2026-10-04T05:20:52.000Z</time></trkpt>
      <trkpt lat="42.2808000" lon="-83.7416596"><time>2026-10-04T05:20:53.000Z</time></trkpt>
      <trkpt lat="42.2808000" lon="-83.7415430"><time>2026-10-04T05:20:54.000Z</time></trkpt>
      <trkpt lat="42.2808000" lon="-83.7414216"><time>2026-10-04T05:20:55.000Z</time></trkpt>
      <trkpt lat="42.2808000" lon="-83.7412953"><time>2026-10-04T05:20:56.000Z</time></trkpt>
      <trkpt lat="42.2808000" lon="-83.7411642"><time>2026-10-04T05:20:57.000Z</time></trkpt>
      <trkpt lat="42.2808000" lon="-83.7410282"><time>2026-10-04T05:20:58.000Z</time></trkpt>
      <trkpt lat="42.2808000" lon="-83.7408873"><time>2026-10-04T05:20:59.000Z</time></trkpt>
      <trkpt lat="42.2808000" lon="-83.7407416"><time>2026-10-04T05:21:00.000Z</time></trkpt>
      <trkpt lat="42.2808000" lon="-83.7405959"><time>2026-10-04T05:21:01.000Z</time></trkpt>
      <trkpt lat="42.2808000" lon="-83.7404502"><time>2026-10-04T05:21:02.000Z</time></trkpt>
      <trkpt lat="42.2808000" lon="-83.7403045"><time>2026-10-04T05:21:03.000Z</time></trkpt>
      <trkpt lat="42.2808000" lon="-83.7401588"><time>2026-10-04T05:21:04.000Z</time></trkpt>
      <trkpt lat="42.2808000" lon="-83.7400131"><time>2026-10-04T05:21:05.000Z</time></trkpt>
      <trkpt lat="42.2808000" lon="-83.7398674"><time>2026-10-04T05:21:06.000Z</time></trkpt>
      <trkpt lat="42.2808000" lon="-83.7397217"><time>2026-10-04T05:21:07.000Z</time></trkpt>
      <trkpt lat="42.2808000" lon="-83.7395760"><time>2026-10-04T05:21:08.000Z</time></trkpt>
      <trkpt lat="42.2808000" lon="-83.7394303"><time>2026-10-04T05:21:09.000Z</time></trkpt>
      <trkpt lat="42.2808000" lon="-83.7392846"><time>2026-10-04T05:21:10.000Z</time></trkpt>
      <trkpt lat="42.2808000" lon="-83.7391389"><time>2026-10-04T05:21:11.000Z</time></trkpt>
      <trkpt lat="42.2808000" lon="-83.7389932"><time>2026-10-04T05:21:12.000Z</time></trkpt>
      <trkpt lat="42.2808000" lon="-83.7388475"><time>2026-10-04T05:21:13.000Z</time></trkpt>
      <trkpt lat="42.2808000" lon="-83.7387018"><time>2026-10-04T05:21:14.000Z</time></trkpt>
      <trkpt lat="42.2808000" lon="-83.7385561"><time>2026-10-04T05:21:15.000Z</time></trkpt>
      <trkpt lat="42.2808000" lon="-83.7384104"><time>2026-10-04T05:21:16.000Z</time></trkpt>
      <trkpt lat="42.2808000" lon="-83.7382647"><time>2026-10-04T05:21:17.000Z</time></trkpt>
      <trkpt lat="42.2808000" lon="-83.7381190"><time>2026-10-04T05:21:18.000Z</time></trkpt>
      <trkpt lat="42.2808000" lon="-83.7379733"><time>2026-10-04T05:21:19.000Z</time></trkpt>
      <trkpt lat="42.2808000" lon="-83.7378276"><time>2026-10-04T05:21:20.000Z</time></trkpt>
      <trkpt lat="42.2808000" lon="-83.7376819"><time>2026-10-04T05:21:21.000Z</time></trkpt>
      <trkpt lat="42.2808000" lon="-83.7375362"><time>2026-10-04T05:21:22.000Z</time></trkpt>
      <trkpt lat="42.2808000" lon="-83.7373905"><time>2026-10-04T05:21:23.000Z</time></trkpt>
      <trkpt lat="42.2808000" lon="-83.7372448"><time>2026-10-04T05:21:24.000Z</time></trkpt>
      <trkpt lat="42.2808000" lon="-83.7370991"><time>2026-10-04T05:21:25.000Z</time></trkpt>
      <trkpt lat="42.2808000" lon="-83.7369534"><time>2026-10-04T05:21:26.000Z</time></trkpt>
      <trkpt lat="42.2808000" lon="-83.7368077"><time>2026-10-04T05:21:27.000Z</time></trkpt>
      <trkpt lat="42.2808000" lon="-83.7366620"><time>2026-10-04T05:21:28.000Z</time></trkpt>
      <trkpt lat="42.2808000" lon="-83.7365163"><time>2026-10-04T05:21:29.000Z</time></trkpt>
      <trkpt lat="42.2808000" lon="-83.7363706"><time>2026-10-04T05:21:30.000Z</time></trkpt>
      <trkpt lat="42.2808000" lon="-83.7362249"><time>2026-10-04T05:21:31.000Z</time></trkpt>
      <trkpt lat="42.2808000" lon="-83.7360792"><time>2026-10-04T05:21:32.000Z</time></trkpt>
      <trkpt lat="42.2808000" lon="-83.7359335"><time>2026-10-04T05:21:33.000Z</time></trkpt>
      <trkpt lat="42.2808000" lon="-83.7357878"><time>2026-10-04T05:21:34.000Z</time></trkpt>
      <trkpt lat="42.2808000" lon="-83.7356421"><time>2026-10-04T05:21:35.000Z</time></trkpt>
      <trkpt lat="42.2808000" lon="-83.7354964"><time>2026-10-04T05:21:36.000Z</time></trkpt>
      <trkpt lat="42.2808000" lon="-83.7353507"><time>2026-10-04T05:21:37.000Z</time></trkpt>
      <trkpt lat="42.2808000" lon="-83.7352050"><time>2026-10-04T05:21:38.000Z</time></trkpt>
      <trkpt lat="42.2808000" lon="-83.7350593"><time>2026-10-04T05:21:39.000Z</time></trkpt>
      <trkpt lat="42.2808000" lon="-83.7349136"><time>2026-10-04T05:21:40.000Z</time></trkpt>
      <trkpt lat="42.2808000" lon="-83.7347679"><time>2026-10-04T05:21:41.000Z</time></trkpt>
      <trkpt lat="42.2808000" lon="-83.7346222"><time>2026-10-04T05:21:42.000Z</time></trkpt>
      <trkpt lat="42.2808000" lon="-83.7344765"><time>2026-10-04T05:21:43.000Z</time></trkpt>
      <trkpt lat="42.2808000" lon="-83.7343308"><time>2026-10-04T05:21:44.000Z</time></trkpt>
      <trkpt lat="42.2808000" lon="-83.7341851"><time>2026-10-04T05:21:45.000Z</time></trkpt>
      <trkpt lat="42.2808000" lon="-83.7340394"><time>2026-10-04T05:21:46.000Z</time></trkpt>
      <trkpt lat="42.2808000" lon="-83.7338937"><time>2026-10-04T05:21:47.000Z</time></trkpt>
      <trkpt lat="42.2808000" lon="-83.7337480"><time>2026-10-04T05:21:48.000Z</time></trkpt>
      <trkpt lat="42.2808000" lon="-83.7336023"><time>2026-10-04T05:21:49.000Z</time></trkpt>
      <trkpt lat="42.2808000" lon="-83.7334566"><time>2026-10-04T05:21:50.000Z</time></trkpt>
      <trkpt lat="42.2808000" lon="-83.7333109"><time>2026-10-04T05:21:51.000Z</time></trkpt>
      <trkpt lat="42.2808000" lon="-83.7331652"><time>2026-10-04T05:21:52.000Z</time></trkpt>
      <trkpt lat="42.2808000" lon="-83.7330195"><time>2026-10-04T05:21:53.000Z</time></trkpt>
      <trkpt lat="42.2808000" lon="-83.7328738"><time>2026-10-04T05:21:54.000Z</time></trkpt>
      <trkpt lat="42.2808000" lon="-83.7327281"><time>2026-10-04T05:21:55.000Z</time></trkpt>
      <trkpt lat="42.2808000" lon="-83.7325824"><time>2026-10-04T05:21:56.000Z</time></trkpt>
      <trkpt lat="42.2808000" lon="-83.7324367"><time>2026-10-04T05:21:57.000Z</time></trkpt>
      <trkpt lat="42.2808000" lon="-83.7322910"><time>2026-10-04T05:21:58.000Z</time></trkpt>
      <trkpt lat="42.2808000" lon="-83.7321453"><time>2026-10-04T05:21:59.000Z</time></trkpt>
      <trkpt lat="42.2808000" lon="-83.7319996"><time>2026-10-04T05:22:00.000Z</time></trkpt>
      <trkpt lat="42.2808000" lon="-83.7318479"><time>2026-10-04T05:22:01.000Z</time></trkpt>
      <trkpt lat="42.2808000" lon="-83.7316900"><time>2026-10-04T05:22:02.000Z</time></trkpt>
      <trkpt lat="42.2808000" lon="-83.7315261"><time>2026-10-04T05:22:03.000Z</time></trkpt>
      <trkpt lat="42.2808000" lon="-83.7313561"><time>2026-10-04T05:22:04.000Z</time></trkpt>
      <trkpt lat="42.2808000" lon="-83.7311801"><time>2026-10-04T05:22:05.000Z</time></trkpt>
      <trkpt lat="42.2808000" lon="-83.7309979"><time>2026-10-04T05:22:06.000Z</time></trkpt>
      <trkpt lat="42.2808000" lon="-83.7308097"><time>2026-10-04T05:22:07.000Z</time></trkpt>
      <trkpt lat="42.2808000" lon="-83.7306155"><time>2026-10-04T05:22:08.000Z</time></trkpt>
      <trkpt lat="42.2808000" lon="-83.7304151"><time>2026-10-04T05:22:09.000Z</time></trkpt>
      <trkpt lat="42.2808000" lon="-83.7302087"><time>2026-10-04T05:22:10.000Z</time></trkpt>
      <trkpt lat="42.2808000" lon="-83.7300023"><time>2026-10-04T05:22:11.000Z</time></trkpt>
      <trkpt lat="42.2808000" lon="-83.7297959"><time>2026-10-04T05:22:12.000Z</time></trkpt>
      <trkpt lat="42.2808000" lon="-83.7295895"><time>2026-10-04T05:22:13.000Z</time></trkpt>
      <trkpt lat="42.2808000" lon="-83.7293831"><time>2026-10-04T05:22:14.000Z</time></trkpt>
      <trkpt lat="42.2808000" lon="-83.7291767"><time>2026-10-04T05:22:15.000Z</time></trkpt>
      <trkpt lat="42.2808000" lon="-83.7289703"><time>2026-10-04T05:22:16.000Z</time></trkpt>
      <trkpt lat="42.2808000" lon="-83.7287639"><time>2026-10-04T05:22:17.000Z</time></trkpt>
      <trkpt lat="42.2808000" lon="-83.7285575"><time>2026-10-04T05:22:18.000Z</time></trkpt>
      <trkpt lat="42.2808000" lon="-83.7283510"><time>2026-10-04T05:22:19.000Z</time></trkpt>
      <trkpt lat="42.2808000" lon="-83.7281446"><time>2026-10-04T05:22:20.000Z</time></trkpt>
      <trkpt lat="42.2808000" lon="-83.7279382"><time>2026-10-04T05:22:21.000Z</time></trkpt>
      <trkpt lat="42.2808000" lon="-83.7277318"><time>2026-10-04T05:22:22.000Z</time></trkpt>
      <trkpt lat="42.2808000" lon="-83.7275254"><time>2026-10-04T05:22:23.000Z</time></trkpt>
      <trkpt lat="42.2808000" lon="-83.7273190"><time>2026-10-04T05:22:24.000Z</time></trkpt>
      <trkpt lat="42.2808000" lon="-83.7271126"><time>2026-10-04T05:22:25.000Z</time></trkpt>
      <trkpt lat="42.2808000" lon="-83.7269062"><time>2026-10-04T05:22:26.000Z</time></trkpt>
      <trkpt lat="42.2808000" lon="-83.7266998"><time>2026-10-04T05:22:27.000Z</time></trkpt>
      <trkpt lat="42.2808000" lon="-83.7264934"><time>2026-10-04T05:22:28.000Z</time></trkpt>
      <trkpt lat="42.2808000" lon="-83.7262870"><time>2026-10-04T05:22:29.000Z</time></trkpt>
      <trkpt lat="42.2808000" lon="-83.7260806"><time>2026-10-04T05:22:30.000Z</time></trkpt>
      <trkpt lat="42.2808000" lon="-83.7258741"><time>2026-10-04T05:22:31.000Z</time></trkpt>
      <trkpt lat="42.2808000" lon="-83.7256677"><time>2026-10-04T05:22:32.000Z</time></trkpt>
      <trkpt lat="42.2808000" lon="-83.7254613"><time>2026-10-04T05:22:33.000Z</time></trkpt>
      <trkpt lat="42.2808000" lon="-83.7252549"><time>2026-10-04T05:22:34.000Z</time></trkpt>
      <trkpt lat="42.2808000" lon="-83.7250485"><time>2026-10-04T05:22:35.000Z</time></trkpt>
      <trkpt lat="42.2808000" lon="-83.7248421"><time>2026-10-04T05:22:36.000Z</time></trkpt>
      <trkpt lat="42.2808000" lon="-83.7246357"><time>2026-10-04T05:22:37.000Z</time></trkpt>
      <trkpt lat="42.2808000" lon="-83.7244293"><time>2026-10-04T05:22:38.000Z</time></trkpt>
      <trkpt lat="42.2808000" lon="-83.7242229"><time>2026-10-04T05:22:39.000Z</time></trkpt>
      <trkpt lat="42.2808000" lon="-83.7240165"><time>2026-10-04T05:22:40.000Z</time></trkpt>
      <trkpt lat="42.2808000" lon="-83.7238101"><time>2026-10-04T05:22:41.000Z</time></trkpt>
      <trkpt lat="42.2808000" lon="-83.7236036"><time>2026-10-04T05:22:42.000Z</time></trkpt>
      <trkpt lat="42.2808000" lon="-83.7233972"><time>2026-10-04T05:22:43.000Z</time></trkpt>
      <trkpt lat="42.2808000" lon="-83.7231908"><time>2026-10-04T05:22:44.000Z</time></trkpt>
      <trkpt lat="42.2808000" lon="-83.7229844"><time>2026-10-04T05:22:45.000Z</time></trkpt>
      <trkpt lat="42.2808000" lon="-83.7227780"><time>2026-10-04T05:22:46.000Z</time></trkpt>
      <trkpt lat="42.2808000" lon="-83.7225716"><time>2026-10-04T05:22:47.000Z</time></trkpt>
      <trkpt lat="42.2808000" lon="-83.7223652"><time>2026-10-04T05:22:48.000Z</time></trkpt>
      <trkpt lat="42.2808000" lon="-83.7221588"><time>2026-10-04T05:22:49.000Z</time></trkpt>
      <trkpt lat="42.2808000" lon="-83.7219524"><time>2026-10-04T05:22:50.000Z</time></trkpt>
      <trkpt lat="42.2808000" lon="-83.7217460"><time>2026-10-04T05:22:51.000Z</time></trkpt>
      <trkpt lat="42.2808000" lon="-83.7215396"><time>2026-10-04T05:22:52.000Z</time></trkpt>
      <trkpt lat="42.2808000" lon="-83.7213331"><time>2026-10-04T05:22:53.000Z</time></trkpt>
      <trkpt lat="42.2808000" lon="-83.7211267"><time>2026-10-04T05:22:54.000Z</time></trkpt>
      <trkpt lat="42.2808000" lon="-83.7209203"><time>2026-10-04T05:22:55.000Z</time></trkpt>
      <trkpt lat="42.2808000" lon="-83.7207139"><time>2026-10-04T05:22:56.000Z</time></trkpt>
      <trkpt lat="42.2808000" lon="-83.7205075"><time>2026-10-04T05:22:57.000Z</time></trkpt>
      <trkpt lat="42.2808000" lon="-83.7203011"><time>2026-10-04T05:22:58.000Z</time></trkpt>
      <trkpt lat="42.2808000" lon="-83.7200947"><time>2026-10-04T05:22:59.000Z</time></trkpt>
      <trkpt lat="42.2807066" lon="-83.7200218"><time>2026-10-04T05:23:00.000Z</time></trkpt>
      <trkpt lat="42.2806133" lon="-83.7200947"><time>2026-10-04T05:23:01.000Z</time></trkpt>
      <trkpt lat="42.2806133" lon="-83.7202404"><time>2026-10-04T05:23:02.000Z</time></trkpt>
      <trkpt lat="42.2806133" lon="-83.7203861"><time>2026-10-04T05:23:03.000Z</time></trkpt>
      <trkpt lat="42.2806133" lon="-83.7205318"><time>2026-10-04T05:23:04.000Z</time></trkpt>
      <trkpt lat="42.2806133" lon="-83.7206775"><time>2026-10-04T05:23:05.000Z</time></trkpt>
      <trkpt lat="42.2806133" lon="-83.7208232"><time>2026-10-04T05:23:06.000Z</time></trkpt>
      <trkpt lat="42.2806133" lon="-83.7209689"><time>2026-10-04T05:23:07.000Z</time></trkpt>
      <trkpt lat="42.2806133" lon="-83.7211146"><time>2026-10-04T05:23:08.000Z</time></trkpt>
      <trkpt lat="42.2806133" lon="-83.7212603"><time>2026-10-04T05:23:09.000Z</time></trkpt>
      <trkpt lat="42.2806133" lon="-83.7214060"><time>2026-10-04T05:23:10.000Z</time></trkpt>
      <trkpt lat="42.2806133" lon="-83.7215481"><time>2026-10-04T05:23:11.000Z</time></trkpt>
      <trkpt lat="42.2806133" lon="-83.7216865"><time>2026-10-04T05:23:12.000Z</time></trkpt>
      <trkpt lat="42.2806133" lon="-83.7218212"><time>2026-10-04T05:23:13.000Z</time></trkpt>
      <trkpt lat="42.2806133" lon="-83.7219524"><time>2026-10-04T05:23:14.000Z</time></trkpt>
      <trkpt lat="42.2806133" lon="-83.7220799"><time>2026-10-04T05:23:15.000Z</time></trkpt>
      <trkpt lat="42.2806133" lon="-83.7222037"><time>2026-10-04T05:23:16.000Z</time></trkpt>
      <trkpt lat="42.2806133" lon="-83.7223239"><time>2026-10-04T05:23:17.000Z</time></trkpt>
      <trkpt lat="42.2806133" lon="-83.7224405"><time>2026-10-04T05:23:18.000Z</time></trkpt>
      <trkpt lat="42.2806133" lon="-83.7225534"><time>2026-10-04T05:23:19.000Z</time></trkpt>
      <trkpt lat="42.2806133" lon="-83.7226627"><time>2026-10-04T05:23:20.000Z</time></trkpt>
      <trkpt lat="42.2806133" lon="-83.7227683"><time>2026-10-04T05:23:21.000Z</time></trkpt>
      <trkpt lat="42.2806133" lon="-83.7228703"><time>2026-10-04T05:23:22.000Z</time></trkpt>
      <trkpt lat="42.2806133" lon="-83.7229686"><time>2026-10-04T05:23:23.000Z</time></trkpt>
      <trkpt lat="42.2806133" lon="-83.7230633"><time>2026-10-04T05:23:24.000Z</time></trkpt>
      <trkpt lat="42.2806133" lon="-83.7231544"><time>2026-10-04T05:23:25.000Z</time></trkpt>
      <trkpt lat="42.2806133" lon="-83.7232418"><time>2026-10-04T05:23:26.000Z</time></trkpt>
      <trkpt lat="42.2806133" lon="-83.7233256"><time>2026-10-04T05:23:27.000Z</time></trkpt>
      <trkpt lat="42.2806133" lon="-83.7234057"><time>2026-10-04T05:23:28.000Z</time></trkpt>
      <trkpt lat="42.2806133" lon="-83.7234822"><time>2026-10-04T05:23:29.000Z</time></trkpt>
      <trkpt lat="42.2806133" lon="-83.7235551"><time>2026-10-04T05:23:30.000Z</time></trkpt>
      <trkpt lat="42.2806133" lon="-83.7236243"><time>2026-10-04T05:23:31.000Z</time></trkpt>
      <trkpt lat="42.2806133" lon="-83.7236898"><time>2026-10-04T05:23:32.000Z</time></trkpt>
      <trkpt lat="42.2806133" lon="-83.7237518"><time>2026-10-04T05:23:33.000Z</time></trkpt>
      <trkpt lat="42.2806133" lon="-83.7238100"><time>2026-10-04T05:23:34.000Z</time></trkpt>
      <trkpt lat="42.2806133" lon="-83.7238647"><time>2026-10-04T05:23:35.000Z</time></trkpt>
      <trkpt lat="42.2806133" lon="-83.7239157"><time>2026-10-04T05:23:36.000Z</time></trkpt>
      <trkpt lat="42.2806133" lon="-83.7239630"><time>2026-10-04T05:23:37.000Z</time></trkpt>
      <trkpt lat="42.2806133" lon="-83.7240067"><time>2026-10-04T05:23:38.000Z</time></trkpt>
      <trkpt lat="42.2806133" lon="-83.7240468"><time>2026-10-04T05:23:39.000Z</time></trkpt>
      <trkpt lat="42.2806133" lon="-83.7240832"><time>2026-10-04T05:23:40.000Z</time></trkpt>
      <trkpt lat="42.2806133" lon="-83.7241160"><time>2026-10-04T05:23:41.000Z</time></trkpt>
      <trkpt lat="42.2806133" lon="-83.7241452"><time>2026-10-04T05:23:42.000Z</time></trkpt>
      <trkpt lat="42.2806133" lon="-83.7241706"><time>2026-10-04T05:23:43.000Z</time></trkpt>
      <trkpt lat="42.2806133" lon="-83.7241925"><time>2026-10-04T05:23:44.000Z</time></trkpt>
      <trkpt lat="42.2806133" lon="-83.7242107"><time>2026-10-04T05:23:45.000Z</time></trkpt>
      <trkpt lat="42.2806133" lon="-83.7242253"><time>2026-10-04T05:23:46.000Z</time></trkpt>
      <trkpt lat="42.2806133" lon="-83.7242362"><time>2026-10-04T05:23:47.000Z</time></trkpt>
      <trkpt lat="42.2806133" lon="-83.7242435"><time>2026-10-04T05:23:48.000Z</time></trkpt>
      <trkpt lat="42.2806133" lon="-83.7242471"><time>2026-10-04T05:23:49.000Z</time></trkpt>
      <trkpt lat="42.2806133" lon="-83.7242471"><time>2026-10-04T05:23:50.000Z</time></trkpt>
      <trkpt lat="42.2806133" lon="-83.7242471"><time>2026-10-04T05:23:51.000Z</time></trkpt>
      <trkpt lat="42.2806133" lon="-83.7242471"><time>2026-10-04T05:23:52.000Z</time></trkpt>
      <trkpt lat="42.2806133" lon="-83.7242471"><time>2026-10-04T05:23:53.000Z</time></trkpt>
      <trkpt lat="42.2806133" lon="-83.7242471"><time>2026-10-04T05:23:54.000Z</time></trkpt>
      <trkpt lat="42.2806133" lon="-83.7242471"><time>2026-10-04T05:23:55.000Z</time></trkpt>
      <trkpt lat="42.2806133" lon="-83.7242471"><time>2026-10-04T05:23:56.000Z</time></trkpt>
      <trkpt lat="42.2806133" lon="-83.7242471"><time>2026-10-04T05:23:57.000Z</time></trkpt>
      <trkpt lat="42.2806133" lon="-83.7242471"><time>2026-10-04T05:23:58.000Z</time></trkpt>
      <trkpt lat="42.2806133" lon="-83.7242471"><time>2026-10-04T05:23:59.000Z</time></trkpt>
      <trkpt lat="42.2806133" lon="-83.7242471"><time>2026-10-04T05:24:00.000Z</time></trkpt>
      <trkpt lat="42.2806133" lon="-83.7242471"><time>2026-10-04T05:24:01.000Z</time></trkpt>
      <trkpt lat="42.2806133" lon="-83.7242471"><time>2026-10-04T05:24:02.000Z</time></trkpt>
      <trkpt lat="42.2806133" lon="-83.7242471"><time>2026-10-04T05:24:03.000Z</time></trkpt>
      <trkpt lat="42.2806133" lon="-83.7242471"><time>2026-10-04T05:24:04.000Z</time></trkpt>
      <trkpt lat="42.2806133" lon="-83.7242471"><time>2026-10-04T05:24:05.000Z</time></trkpt>
      <trkpt lat="42.2806133" lon="-83.7242471"><time>2026-10-04T05:24:06.000Z</time></trkpt>
      <trkpt lat="42.2806133" lon="-83.7242471"><time>2026-10-04T05:24:07.000Z</time></trkpt>
      <trkpt lat="42.2806133" lon="-83.7242471"><time>2026-10-04T05:24:08.000Z</time></trkpt>
      <trkpt lat="42.2806133" lon="-83.7242471"><time>2026-10-04T05:24:09.000Z</time></trkpt>
      <trkpt lat="42.2806133" lon="-83.7242471"><time>2026-10-04T05:24:10.000Z</time></trkpt>
      <trkpt lat="42.2806133" lon="-83.7242471"><time>2026-10-04T05:24:11.000Z</time></trkpt>
      <trkpt lat="42.2806133" lon="-83.7242471"><time>2026-10-04T05:24:12.000Z</time></trkpt>
      <trkpt lat="42.2806133" lon="-83.7242471"><time>2026-10-04T05:24:13.000Z</time></trkpt>
      <trkpt lat="42.2806133" lon="-83.7242471"><time>2026-10-04T05:24:14.000Z</time></trkpt>
      <trkpt lat="42.2806133" lon="-83.7242471"><time>2026-10-04T05:24:15.000Z</time></trkpt>
      <trkpt lat="42.2806133" lon="-83.7242471"><time>2026-10-04T05:24:16.000Z</time></trkpt>
      <trkpt lat="42.2806133" lon="-83.7242471"><time>2026-10-04T05:24:17.000Z</time></trkpt>
      <trkpt lat="42.2806133" lon="-83.7242471"><time>2026-10-04T05:24:18.000Z</time></trkpt>
      <trkpt lat="42.2806133" lon="-83.7242471"><time>2026-10-04T05:24:19.000Z</time></trkpt>
      <trkpt lat="42.2806133" lon="-83.7242471"><time>2026-10-04T05:24:20.000Z</time></trkpt>
      <trkpt lat="42.2806133" lon="-83.7242471"><time>2026-10-04T05:24:21.000Z</time></trkpt>
      <trkpt lat="42.2806133" lon="-83.7242471"><time>2026-10-04T05:24:22.000Z</time></trkpt>
      <trkpt lat="42.2806133" lon="-83.7242471"><time>2026-10-04T05:24:23.000Z</time></trkpt>
      <trkpt lat="42.2806133" lon="-83.7242471"><time>2026-10-04T05:24:24.000Z</time></trkpt>
      <trkpt lat="42.2806133" lon="-83.7242471"><time>2026-10-04T05:24:25.000Z</time></trkpt>
      <trkpt lat="42.2806133" lon="-83.7242471"><time>2026-10-04T05:24:26.000Z</time></trkpt>
      <trkpt lat="42.2806133" lon="-83.7242471"><time>2026-10-04T05:24:27.000Z</time></trkpt>
      <trkpt lat="42.2806133" lon="-83.7242471"><time>2026-10-04T05:24:28.000Z</time></trkpt>
      <trkpt lat="42.2806133" lon="-83.7242471"><time>2026-10-04T05:24:29.000Z</time></trkpt>
      <trkpt lat="42.2806133" lon="-83.7242471"><time>2026-10-04T05:24:30.000Z</time></trkpt>
      <trkpt lat="42.2806133" lon="-83.7242471"><time>2026-10-04T05:24:31.000Z</time></trkpt>
      <trkpt lat="42.2806133" lon="-83.7242471"><time>2026-10-04T05:24:32.000Z</time></trkpt>
      <trkpt lat="42.2806133" lon="-83.7242471"><time>2026-10-04T05:24:33.000Z</time></trkpt>
      <trkpt lat="42.2806133" lon="-83.7242471"><time>2026-10-04T05:24:34.000Z</time></trkpt>
      <trkpt lat="42.2806133" lon="-83.7242471"><time>2026-10-04T05:24:35.000Z</time></trkpt>
      <trkpt lat="42.2806133" lon="-83.7242471"><time>2026-10-04T05:24:36.000Z</time></trkpt>
      <trkpt lat="42.2806133" lon="-83.7242471"><time>2026-10-04T05:24:37.000Z</time></trkpt>
      <trkpt lat="42.2806133" lon="-83.7242471"><time>2026-10-04T05:24:38.000Z</time></trkpt>
      <trkpt lat="42.2806133" lon="-83.7242471"><time>2026-10-04T05:24:39.000Z</time></trkpt>
      <trkpt lat="42.2806133" lon="-83.7242471"><time>2026-10-04T05:24:40.000Z</time></trkpt>
      <trkpt lat="42.2806133" lon="-83.7242471"><time>2026-10-04T05:24:41.000Z</time></trkpt>
      <trkpt lat="42.2806133" lon="-83.7242471"><time>2026-10-04T05:24:42.000Z</time></trkpt>
      <trkpt lat="42.2806133" lon="-83.7242471"><time>2026-10-04T05:24:43.000Z</time></trkpt>
      <trkpt lat="42.2806133" lon="-83.7242471"><time>2026-10-04T05:24:44.000Z</time></trkpt>
      <trkpt lat="42.2806133" lon="-83.7242471"><time>2026-10-04T05:24:45.000Z</time></trkpt>
      <trkpt lat="42.2806133" lon="-83.7242471"><time>2026-10-04T05:24:46.000Z</time></trkpt>
      <trkpt lat="42.2806133" lon="-83.7242471"><time>2026-10-04T05:24:47.000Z</time></trkpt>
      <trkpt lat="42.2806133" lon="-83.7242471"><time>2026-10-04T05:24:48.000Z</time></trkpt>
      <trkpt lat="42.2806133" lon="-83.7242471"><time>2026-10-04T05:24:49.000Z</time></trkpt>
      <trkpt lat="42.2806133" lon="-83.7242471"><time>2026-10-04T05:24:50.000Z</time></trkpt>
      <trkpt lat="42.2806133" lon="-83.7242471"><time>2026-10-04T05:24:51.000Z</time></trkpt>
      <trkpt lat="42.2806133" lon="-83.7242471"><time>2026-10-04T05:24:52.000Z</time></trkpt>
      <trkpt lat="42.2806133" lon="-83.7242471"><time>2026-10-04T05:24:53.000Z</time></trkpt>
      <trkpt lat="42.2806133" lon="-83.7242471"><time>2026-10-04T05:24:54.000Z</time></trkpt>
      <trkpt lat="42.2806133" lon="-83.7242471"><time>2026-10-04T05:24:55.000Z</time></trkpt>
      <trkpt lat="42.2806133" lon="-83.7242471"><time>2026-10-04T05:24:56.000Z</time></trkpt>
      <trkpt lat="42.2806133" lon="-83.7242471"><time>2026-10-04T05:24:57.000Z</time></trkpt>
      <trkpt lat="42.2806133" lon="-83.7242471"><time>2026-10-04T05:24:58.000Z</time></trkpt>
      <trkpt lat="42.2806133" lon="-83.7242471"><time>2026-10-04T05:24:59.000Z</time></trkpt>
      <trkpt lat="42.2806133" lon="-83.7242471"><time>2026-10-04T05:25:00.000Z</time></trkpt>
      <trkpt lat="42.2806133" lon="-83.7242471"><time>2026-10-04T05:25:01.000Z</time></trkpt>
      <trkpt lat="42.2806133" lon="-83.7242471"><time>2026-10-04T05:25:02.000Z</time></trkpt>
      <trkpt lat="42.2806133" lon="-83.7242471"><time>2026-10-04T05:25:03.000Z</time></trkpt>
      <trkpt lat="42.2806133" lon="-83.7242471"><time>2026-10-04T05:25:04.000Z</time></trkpt>
      <trkpt lat="42.2806133" lon="-83.7242471"><time>2026-10-04T05:25:05.000Z</time></trkpt>
      <trkpt lat="42.2806133" lon="-83.7242471"><time>2026-10-04T05:25:06.000Z</time></trkpt>
      <trkpt lat="42.2806133" lon="-83.7242471"><time>2026-10-04T05:25:07.000Z</time></trkpt>
      <trkpt lat="42.2806133" lon="-83.7242471"><time>2026-10-04T05:25:08.000Z</time></trkpt>
      <trkpt lat="42.2806133" lon="-83.7242471"><time>2026-10-04T05:25:09.000Z</time></trkpt>
      <trkpt lat="42.2806133" lon="-83.7242471"><time>2026-10-04T05:25:10.000Z</time></trkpt>
      <trkpt lat="42.2806133" lon="-83.7242471"><time>2026-10-04T05:25:11.000Z</time></trkpt>
      <trkpt lat="42.2806133" lon="-83.7242471"><time>2026-10-04T05:25:12.000Z</time></trkpt>
      <trkpt lat="42.2806133" lon="-83.7242471"><time>2026-10-04T05:25:13.000Z</time></trkpt>
      <trkpt lat="42.2806133" lon="-83.7242471"><time>2026-10-04T05:25:14.000Z</time></trkpt>
      <trkpt lat="42.2806133" lon="-83.7242471"><time>2026-10-04T05:25:15.000Z</time></trkpt>
      <trkpt lat="42.2806133" lon="-83.7242471"><time>2026-10-04T05:25:16.000Z</time></trkpt>
      <trkpt lat="42.2806133" lon="-83.7242471"><time>2026-10-04T05:25:17.000Z</time></trkpt>
      <trkpt lat="42.2806133" lon="-83.7242471"><time>2026-10-04T05:25:18.000Z</time></trkpt>
      <trkpt lat="42.2806133" lon="-83.7242471"><time>2026-10-04T05:25:19.000Z</time></trkpt>
      <trkpt lat="42.2806133" lon="-83.7242471"><time>2026-10-04T05:25:20.000Z</time></trkpt>
      <trkpt lat="42.2806133" lon="-83.7242471"><time>2026-10-04T05:25:21.000Z</time></trkpt>
      <trkpt lat="42.2806133" lon="-83.7242471"><time>2026-10-04T05:25:22.000Z</time></trkpt>
      <trkpt lat="42.2806133" lon="-83.7242471"><time>2026-10-04T05:25:23.000Z</time></trkpt>
      <trkpt lat="42.2806133" lon="-83.7242471"><time>2026-10-04T05:25:24.000Z</time></trkpt>
      <trkpt lat="42.2806133" lon="-83.7242471"><time>2026-10-04T05:25:25.000Z</time></trkpt>
      <trkpt lat="42.2806133" lon="-83.7242471"><time>2026-10-04T05:25:26.000Z</time></trkpt>
      <trkpt lat="42.2806133" lon="-83.7242471"><time>2026-10-04T05:25:27.000Z</time></trkpt>
      <trkpt lat="42.2806133" lon="-83.7242471"><time>2026-10-04T05:25:28.000Z</time></trkpt>
      <trkpt lat="42.2806133" lon="-83.7242471"><time>2026-10-04T05:25:29.000Z</time></trkpt>
      <trkpt lat="42.2806133" lon="-83.7242471"><time>2026-10-04T05:25:30.000Z</time></trkpt>
      <trkpt lat="42.2806133" lon="-83.7242471"><time>2026-10-04T05:25:31.000Z</time></trkpt>
      <trkpt lat="42.2806133" lon="-83.7242471"><time>2026-10-04T05:25:32.000Z</time></trkpt>
      <trkpt lat="42.2806133" lon="-83.7242471"><time>2026-10-04T05:25:33.000Z</time></trkpt>
      <trkpt lat="42.2806133" lon="-83.7242471"><time>2026-10-04T05:25:34.000Z</time></trkpt>
      <trkpt lat="42.2806133" lon="-83.7242471"><time>2026-10-04T05:25:35.000Z</time></trkpt>
      <trkpt lat="42.2806133" lon="-83.7242471"><time>2026-10-04T05:25:36.000Z</time></trkpt>
      <trkpt lat="42.2806133" lon="-83.7242471"><time>2026-10-04T05:25:37.000Z</time></trkpt>
      <trkpt lat="42.2806133" lon="-83.7242471"><time>2026-10-04T05:25:38.000Z</time></trkpt>
      <trkpt lat="42.2806133" lon="-83.7242471"><time>2026-10-04T05:25:39.000Z</time></trkpt>
      <trkpt lat="42.2806133" lon="-83.7242471"><time>2026-10-04T05:25:40.000Z</time></trkpt>
      <trkpt lat="42.2806133" lon="-83.7242471"><time>2026-10-04T05:25:41.000Z</time></trkpt>
      <trkpt lat="42.2806133" lon="-83.7242471"><time>2026-10-04T05:25:42.000Z</time></trkpt>
      <trkpt lat="42.2806133" lon="-83.7242471"><time>2026-10-04T05:25:43.000Z</time></trkpt>
      <trkpt lat="42.2806133" lon="-83.7242471"><time>2026-10-04T05:25:44.000Z</time></trkpt>
      <trkpt lat="42.2806133" lon="-83.7242471"><time>2026-10-04T05:25:45.000Z</time></trkpt>
      <trkpt lat="42.2806133" lon="-83.7242471"><time>2026-10-04T05:25:46.000Z</time></trkpt>
      <trkpt lat="42.2806133" lon="-83.7242471"><time>2026-10-04T05:25:47.000Z</time></trkpt>
      <trkpt lat="42.2806133" lon="-83.7242471"><time>2026-10-04T05:25:48.000Z</time></trkpt>
      <trkpt lat="42.2806133" lon="-83.7242471"><time>2026-10-04T05:25:49.000Z</time></trkpt>
      <trkpt lat="42.2806133" lon="-83.7242471"><time>2026-10-04T05:25:50.000Z</time></trkpt>
      <trkpt lat="42.2806133" lon="-83.7242471"><time>2026-10-04T05:25:51.000Z</time></trkpt>
      <trkpt lat="42.2806133" lon="-83.7242471"><time>2026-10-04T05:25:52.000Z</time></trkpt>
      <trkpt lat="42.2806133" lon="-83.7242471"><time>2026-10-04T05:25:53.000Z</time></trkpt>
      <trkpt lat="42.2806133" lon="-83.7242471"><time>2026-10-04T05:25:54.000Z</time></trkpt>
      <trkpt lat="42.2806133" lon="-83.7242471"><time>2026-10-04T05:25:55.000Z</time></trkpt>
      <trkpt lat="42.2806133" lon="-83.7242471"><time>2026-10-04T05:25:56.000Z</time></trkpt>
      <trkpt lat="42.2806133" lon="-83.7242471"><time>2026-10-04T05:25:57.000Z</time></trkpt>
      <trkpt lat="42.2806133" lon="-83.7242471"><time>2026-10-04T05:25:58.000Z</time></trkpt>
      <trkpt lat="42.2806133" lon="-83.7242471"><time>2026-10-04T05:25:59.000Z</time></trkpt>
      <trkpt lat="42.2806133" lon="-83.7242471"><time>2026-10-04T05:26:00.000Z</time></trkpt>
      <trkpt lat="42.2806133" lon="-83.7242471"><time>2026-10-04T05:26:01.000Z</time></trkpt>
      <trkpt lat="42.2806133" lon="-83.7242471"><time>2026-10-04T05:26:02.000Z</time></trkpt>
      <trkpt lat="42.2806133" lon="-83.7242471"><time>2026-10-04T05:26:03.000Z</time></trkpt>
      <trkpt lat="42.2806133" lon="-83.7242471"><time>2026-10-04T05:26:04.000Z</time></trkpt>
      <trkpt lat="42.2806133" lon="-83.7242471"><time>2026-10-04T05:26:05.000Z</time></trkpt>
      <trkpt lat="42.2806133" lon="-83.7242471"><time>2026-10-04T05:26:06.000Z</time></trkpt>
      <trkpt lat="42.2806133" lon="-83.7242471"><time>2026-10-04T05:26:07.000Z</time></trkpt>
      <trkpt lat="42.2806133" lon="-83.7242471"><time>2026-10-04T05:26:08.000Z</time></trkpt>
      <trkpt lat="42.2806133" lon="-83.7242471"><time>2026-10-04T05:26:09.000Z</time></trkpt>
      <trkpt lat="42.2806133" lon="-83.7242471"><time>2026-10-04T05:26:10.000Z</time></trkpt>
      <trkpt lat="42.2806133" lon="-83.7242471"><time>2026-10-04T05:26:11.000Z</time></trkpt>
      <trkpt lat="42.2806133" lon="-83.7242471"><time>2026-10-04T05:26:12.000Z</time></trkpt>
      <trkpt lat="42.2806133" lon="-83.7242471"><time>2026-10-04T05:26:13.000Z</time></trkpt>
      <trkpt lat="42.2806133" lon="-83.7242471"><time>2026-10-04T05:26:14.000Z</time></trkpt>
      <trkpt lat="42.2806133" lon="-83.7242471"><time>2026-10-04T05:26:15.000Z</time></trkpt>
      <trkpt lat="42.2806133" lon="-83.7242471"><time>2026-10-04T05:26:16.000Z</time></trkpt>
      <trkpt lat="42.2806133" lon="-83.7242471"><time>2026-10-04T05:26:17.000Z</time></trkpt>
      <trkpt lat="42.2806133" lon="-83.7242471"><time>2026-10-04T05:26:18.000Z</time></trkpt>
      <trkpt lat="42.2806133" lon="-83.7242471"><time>2026-10-04T05:26:19.000Z</time></trkpt>
      <trkpt lat="42.2806133" lon="-83.7242471"><time>2026-10-04T05:26:20.000Z</time></trkpt>
      <trkpt lat="42.2806133" lon="-83.7242471"><time>2026-10-04T05:26:21.000Z</time></trkpt>
      <trkpt lat="42.2806133" lon="-83.7242471"><time>2026-10-04T05:26:22.000Z</time></trkpt>
      <trkpt lat="42.2806133" lon="-83.7242471"><time>2026-10-04T05:26:23.000Z</time></trkpt>
      <trkpt lat="42.2806133" lon="-83.7242471"><time>2026-10-04T05:26:24.000Z</time></trkpt>
      <trkpt lat="42.2806133" lon="-83.7242471"><time>2026-10-04T05:26:25.000Z</time></trkpt>
      <trkpt lat="42.2806133" lon="-83.7242471"><time>2026-10-04T05:26:26.000Z</time></trkpt>
      <trkpt lat="42.2806133" lon="-83.7242471"><time>2026-10-04T05:26:27.000Z</time></trkpt>
      <trkpt lat="42.2806133" lon="-83.7242471"><time>2026-10-04T05:26:28.000Z</time></trkpt>
      <trkpt lat="42.2806133" lon="-83.7242471"><time>2026-10-04T05:26:29.000Z</time></trkpt>
      <trkpt lat="42.2806133" lon="-83.7242471"><time>2026-10-04T05:26:30.000Z</time></trkpt>
      <trkpt lat="42.2806133" lon="-83.7242471"><time>2026-10-04T05:26:31.000Z</time></trkpt>
      <trkpt lat="42.2806133" lon="-83.7242471"><time>2026-10-04T05:26:32.000Z</time></trkpt>
      <trkpt lat="42.2806133" lon="-83.7242471"><time>2026-10-04T05:26:33.000Z</time></trkpt>
      <trkpt lat="42.2806133" lon="-83.7242471"><time>2026-10-04T05:26:34.000Z</time></trkpt>
      <trkpt lat="42.2806133" lon="-83.7242471"><time>2026-10-04T05:26:35.000Z</time></trkpt>
      <trkpt lat="42.2806133" lon="-83.7242471"><time>2026-10-04T05:26:36.000Z</time></trkpt>
      <trkpt lat="42.2806133" lon="-83.7242471"><time>2026-10-04T05:26:37.000Z</time></trkpt>
      <trkpt lat="42.2806133" lon="-83.7242471"><time>2026-10-04T05:26:38.000Z</time></trkpt>
      <trkpt lat="42.2806133" lon="-83.7242471"><time>2026-10-04T05:26:39.000Z</time></trkpt>
      <trkpt lat="42.2806133" lon="-83.7242471"><time>2026-10-04T05:26:40.000Z</time></trkpt>
      <trkpt lat="42.2806133" lon="-83.7242471"><time>2026-10-04T05:26:41.000Z</time></trkpt>
      <trkpt lat="42.2806133" lon="-83.7242471"><time>2026-10-04T05:26:42.000Z</time></trkpt>
      <trkpt lat="42.2806133" lon="-83.7242471"><time>2026-10-04T05:26:43.000Z</time></trkpt>
      <trkpt lat="42.2806133" lon="-83.7242471"><time>2026-10-04T05:26:44.000Z</time></trkpt>
      <trkpt lat="42.2806133" lon="-83.7242471"><time>2026-10-04T05:26:45.000Z</time></trkpt>
      <trkpt lat="42.2806133" lon="-83.7242471"><time>2026-10-04T05:26:46.000Z</time></trkpt>
      <trkpt lat="42.2806133" lon="-83.7242471"><time>2026-10-04T05:26:47.000Z</time></trkpt>
      <trkpt lat="42.2806133" lon="-83.7242471"><time>2026-10-04T05:26:48.000Z</time></trkpt>
      <trkpt lat="42.2806133" lon="-83.7242471"><time>2026-10-04T05:26:49.000Z</time></trkpt>
      <trkpt lat="42.2806133" lon="-83.7242471"><time>2026-10-04T05:26:50.000Z</time></trkpt>
      <trkpt lat="42.2806133" lon="-83.7242471"><time>2026-10-04T05:26:51.000Z</time></trkpt>
      <trkpt lat="42.2806133" lon="-83.7242471"><time>2026-10-04T05:26:52.000Z</time></trkpt>
      <trkpt lat="42.2806133" lon="-83.7242471"><time>2026-10-04T05:26:53.000Z</time></trkpt>
      <trkpt lat="42.2806133" lon="-83.7242471"><time>2026-10-04T05:26:54.000Z</time></trkpt>
      <trkpt lat="42.2806133" lon="-83.7242471"><time>2026-10-04T05:26:55.000Z</time></trkpt>
      <trkpt lat="42.2806133" lon="-83.7242471"><time>2026-10-04T05:26:56.000Z</time></trkpt>
      <trkpt lat="42.2806133" lon="-83.7242471"><time>2026-10-04T05:26:57.000Z</time></trkpt>
      <trkpt lat="42.2806133" lon="-83.7242471"><time>2026-10-04T05:26:58.000Z</time></trkpt>
      <trkpt lat="42.2806133" lon="-83.7242471"><time>2026-10-04T05:26:59.000Z</time></trkpt>
      <trkpt lat="42.2806133" lon="-83.7242471"><time>2026-10-04T05:27:00.000Z</time></trkpt>
      <trkpt lat="42.2806133" lon="-83.7242471"><time>2026-10-04T05:27:01.000Z</time></trkpt>
      <trkpt lat="42.2806133" lon="-83.7242471"><time>2026-10-04T05:27:02.000Z</time></trkpt>
      <trkpt lat="42.2806133" lon="-83.7242471"><time>2026-10-04T05:27:03.000Z</time></trkpt>
      <trkpt lat="42.2806133" lon="-83.7242471"><time>2026-10-04T05:27:04.000Z</time></trkpt>
      <trkpt lat="42.2806133" lon="-83.7242471"><time>2026-10-04T05:27:05.000Z</time></trkpt>
      <trkpt lat="42.2806133" lon="-83.7242471"><time>2026-10-04T05:27:06.000Z</time></trkpt>
      <trkpt lat="42.2806133" lon="-83.7242471"><time>2026-10-04T05:27:07.000Z</time></trkpt>
      <trkpt lat="42.2806133" lon="-83.7242471"><time>2026-10-04T05:27:08.000Z</time></trkpt>
      <trkpt lat="42.2806133" lon="-83.7242471"><time>2026-10-04T05:27:09.000Z</time></trkpt>
      <trkpt lat="42.2806133" lon="-83.7242471"><time>2026-10-04T05:27:10.000Z</time></trkpt>
      <trkpt lat="42.2806133" lon="-83.7242471"><time>2026-10-04T05:27:11.000Z</time></trkpt>
      <trkpt lat="42.2806133" lon="-83.7242471"><time>2026-10-04T05:27:12.000Z</time></trkpt>
      <trkpt lat="42.2806133" lon="-83.7242471"><time>2026-10-04T05:27:13.000Z</time></trkpt>
      <trkpt lat="42.2806133" lon="-83.7242471"><time>2026-10-04T05:27:14.000Z</time></trkpt>
      <trkpt lat="42.2806133" lon="-83.7242471"><time>2026-10-04T05:27:15.000Z</time></trkpt>
      <trkpt lat="42.2806133" lon="-83.7242471"><time>2026-10-04T05:27:16.000Z</time></trkpt>
      <trkpt lat="42.2806133" lon="-83.7242471"><time>2026-10-04T05:27:17.000Z</time></trkpt>
      <trkpt lat="42.2806133" lon="-83.7242471"><time>2026-10-04T05:27:18.000Z</time></trkpt>
      <trkpt lat="42.2806133" lon="-83.7242471"><time>2026-10-04T05:27:19.000Z</time></trkpt>
      <trkpt lat="42.2806133" lon="-83.7242471"><time>2026-10-04T05:27:20.000Z</time></trkpt>
      <trkpt lat="42.2806133" lon="-83.7242471"><time>2026-10-04T05:27:21.000Z</time></trkpt>
      <trkpt lat="42.2806133" lon="-83.7242471"><time>2026-10-04T05:27:22.000Z</time></trkpt>
      <trkpt lat="42.2806133" lon="-83.7242471"><time>2026-10-04T05:27:23.000Z</time></trkpt>
      <trkpt lat="42.2806133" lon="-83.7242471"><time>2026-10-04T05:27:24.000Z</time></trkpt>
      <trkpt lat="42.2806133" lon="-83.7242471"><time>2026-10-04T05:27:25.000Z</time></trkpt>
      <trkpt lat="42.2806133" lon="-83.7242471"><time>2026-10-04T05:27:26.000Z</time></trkpt>
      <trkpt lat="42.2806133" lon="-83.7242471"><time>2026-10-04T05:27:27.000Z</time></trkpt>
      <trkpt lat="42.2806133" lon="-83.7242471"><time>2026-10-04T05:27:28.000Z</time></trkpt>
      <trkpt lat="42.2806133" lon="-83.7242471"><time>2026-10-04T05:27:29.000Z</time></trkpt>
      <trkpt lat="42.2806133" lon="-83.7242471"><time>2026-10-04T05:27:30.000Z</time></trkpt>
      <trkpt lat="42.2806133" lon="-83.7242471"><time>2026-10-04T05:27:31.000Z</time></trkpt>
      <trkpt lat="42.2806133" lon="-83.7242471"><time>2026-10-04T05:27:32.000Z</time></trkpt>
      <trkpt lat="42.2806133" lon="-83.7242471"><time>2026-10-04T05:27:33.000Z</time></trkpt>
      <trkpt lat="42.2806133" lon="-83.7242471"><time>2026-10-04T05:27:34.000Z</time></trkpt>
      <trkpt lat="42.2806133" lon="-83.7242471"><time>2026-10-04T05:27:35.000Z</time></trkpt>
      <trkpt lat="42.2806133" lon="-83.7242471"><time>2026-10-04T05:27:36.000Z</time></trkpt>
      <trkpt lat="42.2806133" lon="-83.7242471"><time>2026-10-04T05:27:37.000Z</time></trkpt>
      <trkpt lat="42.2806133" lon="-83.7242471"><time>2026-10-04T05:27:38.000Z</time></trkpt>
      <trkpt lat="42.2806133" lon="-83.7242471"><time>2026-10-04T05:27:39.000Z</time></trkpt>
      <trkpt lat="42.2806133" lon="-83.7242471"><time>2026-10-04T05:27:40.000Z</time></trkpt>
      <trkpt lat="42.2806133" lon="-83.7242471"><time>2026-10-04T05:27:41.000Z</time></trkpt>
      <trkpt lat="42.2806133" lon="-83.7242471"><time>2026-10-04T05:27:42.000Z</time></trkpt>
      <trkpt lat="42.2806133" lon="-83.7242471"><time>2026-10-04T05:27:43.000Z</time></trkpt>
      <trkpt lat="42.2806133" lon="-83.7242471"><time>2026-10-04T05:27:44.000Z</time></trkpt>
      <trkpt lat="42.2806133" lon="-83.7242471"><time>2026-10-04T05:27:45.000Z</time></trkpt>
      <trkpt lat="42.2806133" lon="-83.7242471"><time>2026-10-04T05:27:46.000Z</time></trkpt>
      <trkpt lat="42.2806133" lon="-83.7242471"><time>2026-10-04T05:27:47.000Z</time></trkpt>
      <trkpt lat="42.2806133" lon="-83.7242471"><time>2026-10-04T05:27:48.000Z</time></trkpt>
      <trkpt lat="42.2806133" lon="-83.7242471"><time>2026-10-04T05:27:49.000Z</time></trkpt>
      <trkpt lat="42.2806133" lon="-83.7242471"><time>2026-10-04T05:27:50.000Z</time></trkpt>
      <trkpt lat="42.2806133" lon="-83.7242471"><time>2026-10-04T05:27:51.000Z</time></trkpt>
      <trkpt lat="42.2806133" lon="-83.7242471"><time>2026-10-04T05:27:52.000Z</time></trkpt>
      <trkpt lat="42.2806133" lon="-83.7242471"><time>2026-10-04T05:27:53.000Z</time></trkpt>
      <trkpt lat="42.2806133" lon="-83.7242471"><time>2026-10-04T05:27:54.000Z</time></trkpt>
      <trkpt lat="42.2806133" lon="-83.7242471"><time>2026-10-04T05:27:55.000Z</time></trkpt>
      <trkpt lat="42.2806133" lon="-83.7242471"><time>2026-10-04T05:27:56.000Z</time></trkpt>
      <trkpt lat="42.2806133" lon="-83.7242471"><time>2026-10-04T05:27:57.000Z</time></trkpt>
      <trkpt lat="42.2806133" lon="-83.7242471"><time>2026-10-04T05:27:58.000Z</time></trkpt>
      <trkpt lat="42.2806133" lon="-83.7242471"><time>2026-10-04T05:27:59.000Z</time></trkpt>
      <trkpt lat="42.2806133" lon="-83.7242471"><time>2026-10-04T05:28:00.000Z</time></trkpt>
      <trkpt lat="42.2806133" lon="-83.7242471"><time>2026-10-04T05:28:01.000Z</time></trkpt>
      <trkpt lat="42.2806133" lon="-83.7242471"><time>2026-10-04T05:28:02.000Z</time></trkpt>
      <trkpt lat="42.2806133" lon="-83.7242471"><time>2026-10-04T05:28:03.000Z</time></trkpt>
      <trkpt lat="42.2806133" lon="-83.7242471"><time>2026-10-04T05:28:04.000Z</time></trkpt>
      <trkpt lat="42.2806133" lon="-83.7242471"><time>2026-10-04T05:28:05.000Z</time></trkpt>
      <trkpt lat="42.2806133" lon="-83.7242471"><time>2026-10-04T05:28:06.000Z</time></trkpt>
      <trkpt lat="42.2806133" lon="-83.7242471"><time>2026-10-04T05:28:07.000Z</time></trkpt>
      <trkpt lat="42.2806133" lon="-83.7242471"><time>2026-10-04T05:28:08.000Z</time></trkpt>
      <trkpt lat="42.2806133" lon="-83.7242471"><time>2026-10-04T05:28:09.000Z</time></trkpt>
      <trkpt lat="42.2806133" lon="-83.7242471"><time>2026-10-04T05:28:10.000Z</time></trkpt>
      <trkpt lat="42.2806133" lon="-83.7242471"><time>2026-10-04T05:28:11.000Z</time></trkpt>
      <trkpt lat="42.2806133" lon="-83.7242471"><time>2026-10-04T05:28:12.000Z</time></trkpt>
      <trkpt lat="42.2806133" lon="-83.7242471"><time>2026-10-04T05:28:13.000Z</time></trkpt>
      <trkpt lat="42.2806133" lon="-83.7242471"><time>2026-10-04T05:28:14.000Z</time></trkpt>
      <trkpt lat="42.2806133" lon="-83.7242471"><time>2026-10-04T05:28:15.000Z</time></trkpt>
      <trkpt lat="42.2806133" lon="-83.7242471"><time>2026-10-04T05:28:16.000Z</time></trkpt>
      <trkpt lat="42.2806133" lon="-83.7242471"><time>2026-10-04T05:28:17.000Z</time></trkpt>
      <trkpt lat="42.2806133" lon="-83.7242471"><time>2026-10-04T05:28:18.000Z</time></trkpt>
      <trkpt lat="42.2806133" lon="-83.7242471"><time>2026-10-04T05:28:19.000Z</time></trkpt>
      <trkpt lat="42.2806133" lon="-83.7242471"><time>2026-10-04T05:28:20.000Z</time></trkpt>
      <trkpt lat="42.2806133" lon="-83.7242471"><time>2026-10-04T05:28:21.000Z</time></trkpt>
      <trkpt lat="42.2806133" lon="-83.7242471"><time>2026-10-04T05:28:22.000Z</time></trkpt>
      <trkpt lat="42.2806133" lon="-83.7242471"><time>2026-10-04T05:28:23.000Z</time></trkpt>
      <trkpt lat="42.2806133" lon="-83.7242471"><time>2026-10-04T05:28:24.000Z</time></trkpt>
      <trkpt lat="42.2806133" lon="-83.7242471"><time>2026-10-04T05:28:25.000Z</time></trkpt>
      <trkpt lat="42.2806133" lon="-83.7242471"><time>2026-10-04T05:28:26.000Z</time></trkpt>
      <trkpt lat="42.2806133" lon="-83.7242471"><time>2026-10-04T05:28:27.000Z</time></trkpt>
      <trkpt lat="42.2806133" lon="-83.7242471"><time>2026-10-04T05:28:28.000Z</time></trkpt>
      <trkpt lat="42.2806133" lon="-83.7242471"><time>2026-10-04T05:28:29.000Z</time></trkpt>
      <trkpt lat="42.2806133" lon="-83.7242471"><time>2026-10-04T05:28:30.000Z</time></trkpt>
      <trkpt lat="42.2806133" lon="-83.7242471"><time>2026-10-04T05:28:31.000Z</time></trkpt>
      <trkpt lat="42.2806133" lon="-83.7242471"><time>2026-10-04T05:28:32.000Z</time></trkpt>
      <trkpt lat="42.2806133" lon="-83.7242471"><time>2026-10-04T05:28:33.000Z</time></trkpt>
      <trkpt lat="42.2806133" lon="-83.7242471"><time>2026-10-04T05:28:34.000Z</time></trkpt>
      <trkpt lat="42.2806133" lon="-83.7242471"><time>2026-10-04T05:28:35.000Z</time></trkpt>
      <trkpt lat="42.2806133" lon="-83.7242471"><time>2026-10-04T05:28:36.000Z</time></trkpt>
      <trkpt lat="42.2806133" lon="-83.7242471"><time>2026-10-04T05:28:37.000Z</time></trkpt>
      <trkpt lat="42.2806133" lon="-83.7242471"><time>2026-10-04T05:28:38.000Z</time></trkpt>
      <trkpt lat="42.2806133" lon="-83.7242471"><time>2026-10-04T05:28:39.000Z</time></trkpt>
      <trkpt lat="42.2806133" lon="-83.7242471"><time>2026-10-04T05:28:40.000Z</time></trkpt>
      <trkpt lat="42.2806133" lon="-83.7242471"><time>2026-10-04T05:28:41.000Z</time></trkpt>
      <trkpt lat="42.2806133" lon="-83.7242471"><time>2026-10-04T05:28:42.000Z</time></trkpt>
      <trkpt lat="42.2806133" lon="-83.7242471"><time>2026-10-04T05:28:43.000Z</time></trkpt>
      <trkpt lat="42.2806133" lon="-83.7242471"><time>2026-10-04T05:28:44.000Z</time></trkpt>
      <trkpt lat="42.2806133" lon="-83.7242471"><time>2026-10-04T05:28:45.000Z</time></trkpt>
      <trkpt lat="42.2806133" lon="-83.7242471"><time>2026-10-04T05:28:46.000Z</time></trkpt>
      <trkpt lat="42.2806133" lon="-83.7242471"><time>2026-10-04T05:28:47.000Z</time></trkpt>
      <trkpt lat="42.2806133" lon="-83.7242471"><time>2026-10-04T05:28:48.000Z</time></trkpt>
      <trkpt lat="42.2806133" lon="-83.7242471"><time>2026-10-04T05:28:49.000Z</time></trkpt>
      <trkpt lat="42.2806133" lon="-83.7242471"><time>2026-10-04T05:28:50.000Z</time></trkpt>
      <trkpt lat="42.2806133" lon="-83.7242471"><time>2026-10-04T05:28:51.000Z</time></trkpt>
      <trkpt lat="42.2806133" lon="-83.7242471"><time>2026-10-04T05:28:52.000Z</time></trkpt>
      <trkpt lat="42.2806133" lon="-83.7242471"><time>2026-10-04T05:28:53.000Z</time></trkpt>
      <trkpt lat="42.2806133" lon="-83.7242471"><time>2026-10-04T05:28:54.000Z</time></trkpt>
      <trkpt lat="42.2806133" lon="-83.7242471"><time>2026-10-04T05:28:55.000Z</time></trkpt>
      <trkpt lat="42.2806133" lon="-83.7242471"><time>2026-10-04T05:28:56.000Z</time></trkpt>
      <trkpt lat="42.2806133" lon="-83.7242471"><time>2026-10-04T05:28:57.000Z</time></trkpt>
      <trkpt lat="42.2806133" lon="-83.7242471"><time>2026-10-04T05:28:58.000Z</time></trkpt>
      <trkpt lat="42.2806133" lon="-83.7242471"><time>2026-10-04T05:28:59.000Z</time></trkpt>
      <trkpt lat="42.2806133" lon="-83.7242471"><time>2026-10-04T05:29:00.000Z</time></trkpt>
      <trkpt lat="42.2806133" lon="-83.7242471"><time>2026-10-04T05:29:01.000Z</time></trkpt>
      <trkpt lat="42.2806133" lon="-83.7242471"><time>2026-10-04T05:29:02.000Z</time></trkpt>
      <trkpt lat="42.2806133" lon="-83.7242471"><time>2026-10-04T05:29:03.000Z</time></trkpt>
      <trkpt lat="42.2806133" lon="-83.7242471"><time>2026-10-04T05:29:04.000Z</time></trkpt>
      <trkpt lat="42.2806133" lon="-83.7242471"><time>2026-10-04T05:29:05.000Z</time></trkpt>
      <trkpt lat="42.2806133" lon="-83.7242471"><time>2026-10-04T05:29:06.000Z</time></trkpt>
      <trkpt lat="42.2806133" lon="-83.7242471"><time>2026-10-04T05:29:07.000Z</time></trkpt>
      <trkpt lat="42.2806133" lon="-83.7242471"><time>2026-10-04T05:29:08.000Z</time></trkpt>
      <trkpt lat="42.2806133" lon="-83.7242471"><time>2026-10-04T05:29:09.000Z</time></trkpt>
      <trkpt lat="42.2806133" lon="-83.7242471"><time>2026-10-04T05:29:10.000Z</time></trkpt>
      <trkpt lat="42.2806133" lon="-83.7242471"><time>2026-10-04T05:29:11.000Z</time></trkpt>
      <trkpt lat="42.2806133" lon="-83.7242471"><time>2026-10-04T05:29:12.000Z</time></trkpt>
      <trkpt lat="42.2806133" lon="-83.7242471"><time>2026-10-04T05:29:13.000Z</time></trkpt>
      <trkpt lat="42.2806133" lon="-83.7242471"><time>2026-10-04T05:29:14.000Z</time></trkpt>
      <trkpt lat="42.2806133" lon="-83.7242471"><time>2026-10-04T05:29:15.000Z</time></trkpt>
      <trkpt lat="42.2806133" lon="-83.7242471"><time>2026-10-04T05:29:16.000Z</time></trkpt>
      <trkpt lat="42.2806133" lon="-83.7242471"><time>2026-10-04T05:29:17.000Z</time></trkpt>
      <trkpt lat="42.2806133" lon="-83.7242471"><time>2026-10-04T05:29:18.000Z</time></trkpt>
      <trkpt lat="42.2806133" lon="-83.7242471"><time>2026-10-04T05:29:19.000Z</time></trkpt>
      <trkpt lat="42.2806133" lon="-83.7242471"><time>2026-10-04T05:29:20.000Z</time></trkpt>
    </trkseg>
  </trk>
</gpx>
